[{"OBJECT_NAME":"KUIPER-00098","OBJECT_ID":"2025-171F","EPOCH":"2026-03-09T22:36:41.125824","MEAN_MOTION":14.79916038,"ECCENTRICITY":0.0001212,"INCLINATION":51.8988,"RA_OF_ASC_NODE":161.9719,"ARG_OF_PERICENTER":176.5287,"MEAN_ANOMALY":183.5684,"EPHEMERIS_TYPE":0,"CLASSIFICATION_TYPE":"U","NORAD_CAT_ID":65137,"ELEMENT_SET_NO":999,"REV_AT_EPOCH":3220,"BSTAR":0.00080666104,"MEAN_MOTION_DOT":5.931e-5,"MEAN_MOTION_DDOT":0},{"OBJECT_NAME":"CZ-6A DEB","OBJECT_ID":"2024-140ET","EPOCH":"2026-03-09T01:14:12.255072","MEAN_MOTION":14.56800008,"ECCENTRICITY":0.01113125,"INCLINATION":89.0905,"RA_OF_ASC_NODE":288.7867,"ARG_OF_PERICENTER":249.4824,"MEAN_ANOMALY":109.4413,"EPHEMERIS_TYPE":0,"CLASSIFICATION_TYPE":"U","NORAD_CAT_ID":60768,"ELEMENT_SET_NO":999,"REV_AT_EPOCH":8341,"BSTAR":0.00081015077,"MEAN_MOTION_DOT":3.961e-5,"MEAN_MOTION_DDOT":0}]
